{"type":"FeatureCollection","meta":{"boundaries_source":"NYC community district boundaries, NYC Department of City Planning (NYC Open Data), retrieved via the NYC EH Data Portal geography mirror at https://raw.githubusercontent.com/nycehs/NYC_geography/master/CD.geo.json","indicator":"Percent of residents receiving SNAP","indicator_source":"NYC Council Data Team analysis of the NYC Human Resources Administration Borough/Community District Report and NYC Department of City Planning 2020 Census population","indicator_retrieved_from":"https://raw.githubusercontent.com/NewYorkCityCouncil/food_insecurity/main/data/output/community_district_data.RDS","indicator_vintage":"2025-09","geography_level":"community district (NTA and ZIP-level rates were not reachable from the build environment)","simplification":"Douglas-Peucker at 0.00012 degrees, coordinates rounded to 5 decimals","note":"snap is the published rate, multiplied by 100 and rounded to one decimal. Nothing is interpolated, blended or estimated; districts the source does not cover carry snap:null."},"features":[{"type":"Feature","properties":{"id":0,"name":"Manhattan (CD64)","borough":"Manhattan","snap":null},"geometry":{"type":"MultiPolygon","coordinates":[[[[-73.94922,40.79692],[-73.9582,40.80056],[-73.98165,40.76844],[-73.98136,40.76785],[-73.97302,40.76429],[-73.94922,40.79692]]]]}},{"type":"Feature","properties":{"id":0,"name":"Bronx (CD28)","borough":"Bronx","snap":null},"geometry":{"type":"MultiPolygon","coordinates":[[[[-73.79417,40.883],[-73.80551,40.8861],[-73.8121,40.88672],[-73.81548,40.8867],[-73.81983,40.88568],[-73.81894,40.88518],[-73.81991,40.87939],[-73.82163,40.87752],[-73.82158,40.87537],[-73.81926,40.87441],[-73.82238,40.87294],[-73.82188,40.87067],[-73.82013,40.86912],[-73.81765,40.86927],[-73.81469,40.86825],[-73.81634,40.86611],[-73.81385,40.86404],[-73.81097,40.86272],[-73.80758,40.86039],[-73.80458,40.8612],[-73.80563,40.85472],[-73.805,40.85325],[-73.80021,40.84794],[-73.7982,40.85197],[-73.79842,40.85497],[-73.79647,40.85621],[-73.79408,40.85651],[-73.79369,40.85918],[-73.79191,40.86084],[-73.79018,40.86816],[-73.78583,40.86905],[-73.78252,40.87167],[-73.78402,40.8737],[-73.78723,40.87238],[-73.7877,40.873],[-73.7853,40.87664],[-73.78578,40.87889],[-73.78949,40.87944],[-73.79106,40.88111],[-73.7942,40.87869],[-73.79418,40.87472],[-73.79722,40.87336],[-73.80196,40.86597],[-73.8048,40.8686],[-73.80047,40.87296],[-73.7992,40.87514],[-73.79738,40.87505],[-73.7952,40.87929],[-73.79545,40.88089],[-73.79417,40.883]]],[[[-73.81548,40.84652],[-73.8159,40.85097],[-73.81736,40.85222],[-73.81664,40.85375],[-73.81864,40.85679],[-73.81486,40.85838],[-73.81486,40.86114],[-73.81801,40.86109],[-73.81889,40.86254],[-73.82054,40.86145],[-73.83,40.85822],[-73.82992,40.85619],[-73.8286,40.85573],[-73.82676,40.85301],[-73.82698,40.84809],[-73.82549,40.84584],[-73.82049,40.84851],[-73.8163,40.84858],[-73.81548,40.84652]]]]}},{"type":"Feature","properties":{"id":0,"name":"Brooklyn (CD55)","borough":"Brooklyn","snap":null},"geometry":{"type":"MultiPolygon","coordinates":[[[[-73.9619,40.65488],[-73.96308,40.66214],[-73.96096,40.66329],[-73.9626,40.67165],[-73.96884,40.6731],[-73.96981,40.67543],[-73.97105,40.67524],[-73.97041,40.6726],[-73.97182,40.67064],[-73.97966,40.66125],[-73.98017,40.66116],[-73.97419,40.65787],[-73.97225,40.65103],[-73.9619,40.65488]]]]}},{"type":"Feature","properties":{"id":0,"name":"Brooklyn (CD56)","borough":"Brooklyn","snap":null},"geometry":{"type":"MultiPolygon","coordinates":[[[[-73.89885,40.60389],[-73.90015,40.60178],[-73.90702,40.59768],[-73.90829,40.59554],[-73.90837,40.58969],[-73.91178,40.58632],[-73.91053,40.58527],[-73.90907,40.58661],[-73.90429,40.58708],[-73.90008,40.58855],[-73.89899,40.58582],[-73.89678,40.58305],[-73.89687,40.58122],[-73.89977,40.5803],[-73.904,40.58306],[-73.90527,40.58196],[-73.90177,40.58082],[-73.89617,40.57688],[-73.88774,40.57807],[-73.87928,40.58037],[-73.87594,40.58419],[-73.88493,40.60471],[-73.89885,40.60389]]],[[[-73.87342,40.64687],[-73.87062,40.64487],[-73.86867,40.64093],[-73.86703,40.63986],[-73.86201,40.6429],[-73.85723,40.64375],[-73.85838,40.64728],[-73.85698,40.6506],[-73.86053,40.65471],[-73.86939,40.64979],[-73.87342,40.64687]]],[[[-73.85437,40.62883],[-73.85651,40.62911],[-73.85862,40.62797],[-73.86041,40.62517],[-73.86335,40.62593],[-73.86348,40.6234],[-73.86103,40.62415],[-73.86152,40.61906],[-73.86107,40.61772],[-73.85666,40.62],[-73.84848,40.62243],[-73.84615,40.62223],[-73.84358,40.62319],[-73.84505,40.62542],[-73.84728,40.62663],[-73.84735,40.6291],[-73.84847,40.62965],[-73.85072,40.62801],[-73.85437,40.62883]]],[[[-73.85179,40.6069],[-73.84715,40.60362],[-73.8408,40.60565],[-73.83826,40.61386],[-73.841,40.61304],[-73.84454,40.61488],[-73.84401,40.61705],[-73.84615,40.61774],[-73.84731,40.61345],[-73.84817,40.61254],[-73.84779,40.60924],[-73.85179,40.6069]]],[[[-73.86626,40.61847],[-73.86607,40.6215],[-73.86498,40.62567],[-73.86684,40.62784],[-73.87481,40.6236],[-73.87825,40.61545],[-73.87085,40.61698],[-73.86626,40.61847]]],[[[-73.84859,40.63014],[-73.84722,40.63197],[-73.84505,40.63318],[-73.84352,40.63651],[-73.84668,40.63874],[-73.85614,40.63509],[-73.85856,40.63047],[-73.84859,40.63014]]],[[[-73.86371,40.58566],[-73.863,40.58816],[-73.86476,40.5915],[-73.87054,40.59308],[-73.87264,40.59102],[-73.87171,40.58728],[-73.86901,40.58778],[-73.87129,40.58411],[-73.86923,40.57935],[-73.86751,40.58024],[-73.86371,40.58566]]],[[[-73.89696,40.62157],[-73.89742,40.61927],[-73.89731,40.61031],[-73.89866,40.60525],[-73.89153,40.6093],[-73.88875,40.60892],[-73.88734,40.60957],[-73.89696,40.62157]]],[[[-73.87887,40.63801],[-73.88133,40.63427],[-73.88429,40.63135],[-73.8847,40.62977],[-73.88837,40.62893],[-73.89335,40.62571],[-73.89637,40.62273],[-73.89149,40.62186],[-73.88969,40.62284],[-73.88921,40.62559],[-73.88727,40.62617],[-73.88266,40.62992],[-73.87804,40.6345],[-73.8763,40.6352],[-73.87887,40.63801]]],[[[-73.87855,40.63864],[-73.87581,40.6358],[-73.87261,40.63605],[-73.86814,40.63833],[-73.87176,40.64379],[-73.87394,40.64634],[-73.87855,40.63864]]],[[[-73.85709,40.60648],[-73.85516,40.60613],[-73.85011,40.61022],[-73.84974,40.61516],[-73.85263,40.6151],[-73.85531,40.61315],[-73.85523,40.61614],[-73.85858,40.61693],[-73.85649,40.6132],[-73.85925,40.61126],[-73.85902,40.60948],[-73.85704,40.60831],[-73.85709,40.60648]]],[[[-73.86113,40.60256],[-73.86336,40.60033],[-73.86044,40.59648],[-73.85493,40.59631],[-73.85077,40.59885],[-73.85277,40.60096],[-73.85483,40.60187],[-73.86113,40.60256]]],[[[-73.83342,40.62679],[-73.83514,40.6255],[-73.8372,40.62075],[-73.83623,40.61733],[-73.83911,40.61785],[-73.84006,40.61654],[-73.83406,40.61346],[-73.83342,40.62679]]],[[[-73.83765,40.63285],[-73.84243,40.63154],[-73.84446,40.62986],[-73.8411,40.62456],[-73.83624,40.63112],[-73.83765,40.63285]]],[[[-73.91283,40.58576],[-73.91583,40.58453],[-73.91986,40.58375],[-73.92999,40.58424],[-73.92965,40.58345],[-73.9283,40.58387],[-73.91876,40.58207],[-73.91504,40.58078],[-73.91476,40.582],[-73.91147,40.58134],[-73.91283,40.58576]]],[[[-73.87076,40.61088],[-73.87067,40.60869],[-73.86907,40.60903],[-73.87076,40.61088]]],[[[-73.83588,40.60565],[-73.83446,40.6072],[-73.83428,40.60919],[-73.8361,40.60737],[-73.83588,40.60565]]],[[[-73.84444,40.59586],[-73.84657,40.5952],[-73.84668,40.59322],[-73.84444,40.59586]]]]}},{"type":"Feature","properties":{"id":0,"name":"Queens (CD82)","borough":"Queens","snap":null},"geometry":{"type":"MultiPolygon","coordinates":[[[[-73.8359,40.71165],[-73.84454,40.70867],[-73.84951,40.70835],[-73.85473,40.70677],[-73.85529,40.7026],[-73.85893,40.70133],[-73.86013,40.70243],[-73.86524,40.70271],[-73.86751,40.70182],[-73.86887,40.69903],[-73.87058,40.6977],[-73.86892,40.69516],[-73.86843,40.69473],[-73.85657,40.69707],[-73.85277,40.69756],[-73.8541,40.70052],[-73.84984,40.70013],[-73.84914,40.69829],[-73.84503,40.69937],[-73.84157,40.70111],[-73.83696,40.70422],[-73.83799,40.70675],[-73.83681,40.70845],[-73.83405,40.71004],[-73.8359,40.71165]]]]}},{"type":"Feature","properties":{"id":0,"name":"Queens (CD83)","borough":"Queens","snap":null},"geometry":{"type":"MultiPolygon","coordinates":[[[[-73.74661,40.63802],[-73.7446,40.63953],[-73.74399,40.64126],[-73.74848,40.6455],[-73.7667,40.65581],[-73.76895,40.65568],[-73.77448,40.65891],[-73.78503,40.66343],[-73.79523,40.66489],[-73.80204,40.66526],[-73.8061,40.66484],[-73.8073,40.66066],[-73.81203,40.66136],[-73.81166,40.66262],[-73.81497,40.66248],[-73.82306,40.66354],[-73.82585,40.6634],[-73.83248,40.66498],[-73.82826,40.65604],[-73.82638,40.64827],[-73.82588,40.64938],[-73.82386,40.6494],[-73.82468,40.65557],[-73.8231,40.66032],[-73.81887,40.66203],[-73.81868,40.66107],[-73.82239,40.65942],[-73.82321,40.65539],[-73.82234,40.64934],[-73.81303,40.64415],[-73.79214,40.63501],[-73.78717,40.63169],[-73.78388,40.63004],[-73.77323,40.62585],[-73.77225,40.62478],[-73.77312,40.62135],[-73.76982,40.62139],[-73.76777,40.62324],[-73.76814,40.62597],[-73.76412,40.62911],[-73.74921,40.63544],[-73.747,40.64059],[-73.74919,40.64357],[-73.74862,40.64422],[-73.74611,40.64063],[-73.74661,40.63802]]]]}},{"type":"Feature","properties":{"id":0,"name":"Staten Island (CD95)","borough":"Staten Island","snap":null},"geometry":{"type":"MultiPolygon","coordinates":[[[[-74.06081,40.57688],[-74.05983,40.57752],[-74.05978,40.57985],[-74.06166,40.57983],[-74.06081,40.57688]]],[[[-74.13568,40.54638],[-74.1326,40.54676],[-74.13013,40.54598],[-74.12773,40.54343],[-74.12802,40.54074],[-74.13342,40.53593],[-74.13502,40.53529],[-74.1402,40.53542],[-74.14071,40.53318],[-74.13691,40.52929],[-74.13528,40.53029],[-74.13065,40.53454],[-74.12411,40.54286],[-74.11908,40.5446],[-74.11474,40.54801],[-74.11266,40.54779],[-74.11017,40.55147],[-74.10685,40.55413],[-74.1051,40.55314],[-74.10381,40.55496],[-74.10184,40.55595],[-74.1008,40.55833],[-74.09808,40.55956],[-74.09535,40.56311],[-74.09401,40.56295],[-74.09108,40.56649],[-74.08925,40.56702],[-74.08493,40.57122],[-74.08014,40.57511],[-74.07907,40.57548],[-74.07139,40.58194],[-74.07072,40.58323],[-74.06599,40.5877],[-74.05792,40.59205],[-74.05436,40.5986],[-74.05223,40.59983],[-74.05381,40.60592],[-74.05675,40.60811],[-74.06516,40.60421],[-74.06351,40.60216],[-74.06106,40.59983],[-74.06376,40.59894],[-74.06056,40.59492],[-74.06663,40.59035],[-74.07131,40.58521],[-74.07915,40.57806],[-74.08877,40.57238],[-74.09277,40.56795],[-74.10471,40.57401],[-74.10524,40.5731],[-74.10296,40.57173],[-74.10368,40.57022],[-74.10661,40.56879],[-74.09763,40.56449],[-74.10174,40.55991],[-74.10891,40.55343],[-74.10963,40.5523],[-74.11369,40.55096],[-74.11676,40.549],[-74.11946,40.55223],[-74.1273,40.5573],[-74.13043,40.55445],[-74.13862,40.54846],[-74.13568,40.54638]]]]}},{"type":"Feature","properties":{"id":101,"name":"Financial District (CD1)","borough":"Manhattan","snap":2.8},"geometry":{"type":"MultiPolygon","coordinates":[[[[-74.01517,40.72659],[-74.01166,40.72587],[-74.01322,40.71832],[-74.01671,40.71863],[-74.01757,40.7136],[-74.01931,40.70609],[-74.01845,40.70417],[-74.01513,40.70085],[-74.01107,40.70092],[-74.00332,40.70564],[-74.00219,40.70461],[-74.00058,40.70544],[-74.00119,40.70687],[-73.9992,40.70796],[-74.00147,40.70976],[-74.00051,40.71099],[-74.00057,40.71556],[-73.99931,40.71756],[-74.01146,40.72616],[-74.01517,40.72659]]],[[[-74.01343,40.69213],[-74.01669,40.69335],[-74.01963,40.69319],[-74.02026,40.69201],[-74.02618,40.68644],[-74.02536,40.68407],[-74.02299,40.68416],[-74.0165,40.68708],[-74.01488,40.68726],[-74.01231,40.68929],[-74.01221,40.69113],[-74.01343,40.69213]]],[[[-74.04335,40.6898],[-74.04594,40.69123],[-74.04726,40.69029],[-74.04463,40.68849],[-74.04335,40.6898]]]]}},{"type":"Feature","properties":{"id":102,"name":"Greenwich Village and Soho (CD2)","borough":"Manhattan","snap":3.1},"geometry":{"type":"MultiPolygon","coordinates":[[[[-73.9899,40.73445],[-74.00917,40.74242],[-74.00962,40.7407],[-74.01141,40.74076],[-74.0104,40.73914],[-74.01116,40.73046],[-74.01402,40.73069],[-74.01435,40.72863],[-74.01138,40.72824],[-74.01154,40.72646],[-74.01517,40.72659],[-74.01146,40.72616],[-73.99931,40.71756],[-73.99606,40.71624],[-73.99481,40.71847],[-73.99155,40.7271],[-73.9899,40.73445]]]]}},{"type":"Feature","properties":{"id":103,"name":"Lower East Side and Chinatown (CD3)","borough":"Manhattan","snap":22.5},"geometry":{"type":"MultiPolygon","coordinates":[[[[-73.97161,40.72673],[-73.9899,40.73445],[-73.99155,40.7271],[-73.99481,40.71847],[-73.99606,40.71624],[-73.99931,40.71756],[-74.00057,40.71556],[-74.00051,40.71099],[-74.00147,40.70976],[-73.9992,40.70796],[-73.99728,40.70874],[-73.98874,40.70998],[-73.98817,40.70916],[-73.98124,40.70983],[-73.97826,40.71051],[-73.97605,40.71261],[-73.97313,40.7201],[-73.97161,40.72673]]]]}},{"type":"Feature","properties":{"id":104,"name":"Clinton and Chelsea (CD4)","borough":"Manhattan","snap":10.7},"geometry":{"type":"MultiPolygon","coordinates":[[[[-73.99684,40.73737],[-73.99142,40.74481],[-73.9971,40.74721],[-73.98238,40.76741],[-73.98136,40.76785],[-73.98165,40.76844],[-73.98432,40.76986],[-73.98476,40.76924],[-73.99394,40.77319],[-73.99631,40.76981],[-73.99716,40.76714],[-73.99889,40.76458],[-74.00097,40.76343],[-74.00446,40.75915],[-74.00762,40.75429],[-74.00995,40.74894],[-74.01136,40.7476],[-74.00914,40.74737],[-74.00917,40.74242],[-73.99684,40.73737]]]]}},{"type":"Feature","properties":{"id":105,"name":"Midtown (CD5)","borough":"Manhattan","snap":8.7},"geometry":{"type":"MultiPolygon","coordinates":[[[[-73.97302,40.76429],[-73.98136,40.76785],[-73.98238,40.76741],[-73.9971,40.74721],[-73.99142,40.74481],[-73.99684,40.73737],[-73.98878,40.73397],[-73.98654,40.73706],[-73.98752,40.73747],[-73.98647,40.73937],[-73.98523,40.73885],[-73.97973,40.74641],[-73.98296,40.74777],[-73.98022,40.75153],[-73.97699,40.75017],[-73.96819,40.76223],[-73.97302,40.76429]]]]}},{"type":"Feature","properties":{"id":106,"name":"Stuyvesant Town and Turtle Bay (CD6)","borough":"Manhattan","snap":4.8},"geometry":{"type":"MultiPolygon","coordinates":[[[[-73.95878,40.75828],[-73.96819,40.76223],[-73.97699,40.75017],[-73.98022,40.75153],[-73.98296,40.74777],[-73.97973,40.74641],[-73.98523,40.73885],[-73.98647,40.73937],[-73.98752,40.73747],[-73.98654,40.73706],[-73.98878,40.73397],[-73.97161,40.72673],[-73.97142,40.72873],[-73.97342,40.73129],[-73.97441,40.73642],[-73.97249,40.73581],[-73.97266,40.73923],[-73.97136,40.74385],[-73.96533,40.75106],[-73.95878,40.75828]]]]}},{"type":"Feature","properties":{"id":107,"name":"Upper West Side (CD7)","borough":"Manhattan","snap":7.7},"geometry":{"type":"MultiPolygon","coordinates":[[[[-73.95965,40.80116],[-73.97111,40.8058],[-73.98796,40.78178],[-73.9892,40.77926],[-73.99203,40.77629],[-73.99394,40.77319],[-73.98476,40.76924],[-73.98432,40.76986],[-73.98165,40.76844],[-73.9582,40.80056],[-73.95965,40.80116]]]]}},{"type":"Feature","properties":{"id":108,"name":"Upper East Side (CD8)","borough":"Manhattan","snap":3.0},"geometry":{"type":"MultiPolygon","coordinates":[[[[-73.94355,40.78289],[-73.95578,40.78792],[-73.97302,40.76429],[-73.95878,40.75828],[-73.95442,40.76219],[-73.94814,40.76942],[-73.94293,40.77468],[-73.942,40.77619],[-73.9436,40.78017],[-73.94355,40.78289]]],[[[-73.94019,40.77257],[-73.94213,40.77204],[-73.94472,40.7698],[-73.94909,40.76427],[-73.95366,40.7595],[-73.96001,40.75184],[-73.95956,40.75082],[-73.95254,40.7571],[-73.94286,40.76831],[-73.94036,40.7705],[-73.94019,40.77257]]]]}},{"type":"Feature","properties":{"id":109,"name":"Morningside Heights and Hamilton Heights (CD9)","borough":"Manhattan","snap":19.9},"geometry":{"type":"MultiPolygon","coordinates":[[[[-73.94017,40.83039],[-73.94958,40.83443],[-73.95016,40.8344],[-73.95504,40.82742],[-73.95632,40.82795],[-73.95956,40.8237],[-73.95882,40.82153],[-73.9634,40.81669],[-73.97111,40.8058],[-73.95965,40.80116],[-73.95825,40.80311],[-73.95818,40.8056],[-73.95497,40.81007],[-73.95358,40.80949],[-73.94884,40.81537],[-73.94608,40.82127],[-73.94516,40.82088],[-73.94293,40.82327],[-73.94384,40.82366],[-73.93973,40.82931],[-73.94017,40.83039]]]]}},{"type":"Feature","properties":{"id":110,"name":"Central Harlem (CD10)","borough":"Manhattan","snap":23.6},"geometry":{"type":"MultiPolygon","coordinates":[[[[-73.9338,40.81836],[-73.93443,40.82705],[-73.93517,40.83288],[-73.93445,40.83599],[-73.93837,40.83313],[-73.94017,40.83039],[-73.93973,40.82931],[-73.94384,40.82366],[-73.94293,40.82327],[-73.94516,40.82088],[-73.94608,40.82127],[-73.94884,40.81537],[-73.95358,40.80949],[-73.95497,40.81007],[-73.95818,40.8056],[-73.95825,40.80311],[-73.95965,40.80116],[-73.94922,40.79692],[-73.9446,40.80324],[-73.94613,40.80389],[-73.9443,40.8064],[-73.94276,40.80575],[-73.93488,40.81654],[-73.9338,40.81836]]]]}},{"type":"Feature","properties":{"id":111,"name":"East Harlem (CD11)","borough":"Manhattan","snap":33.4},"geometry":{"type":"MultiPolygon","coordinates":[[[[-73.94355,40.78289],[-73.93983,40.78527],[-73.93812,40.78719],[-73.93583,40.7911],[-73.9302,40.7946],[-73.92904,40.79677],[-73.92904,40.80109],[-73.93116,40.80498],[-73.93356,40.80761],[-73.93434,40.80957],[-73.9338,40.81836],[-73.93488,40.81654],[-73.94276,40.80575],[-73.9443,40.8064],[-73.94613,40.80389],[-73.9446,40.80324],[-73.95578,40.78792],[-73.94355,40.78289]]],[[[-73.91686,40.79037],[-73.91379,40.79384],[-73.91546,40.79707],[-73.92036,40.79943],[-73.92263,40.80188],[-73.9257,40.80182],[-73.92748,40.79813],[-73.92692,40.79567],[-73.92836,40.79311],[-73.92792,40.79103],[-73.93103,40.79094],[-73.93576,40.78572],[-73.93502,40.78301],[-73.93106,40.78236],[-73.92849,40.78102],[-73.92714,40.7812],[-73.92285,40.78356],[-73.92208,40.78549],[-73.91851,40.78943],[-73.91686,40.79037]]]]}},{"type":"Feature","properties":{"id":112,"name":"Washington Heights and Inwood (CD12)","borough":"Manhattan","snap":26.5},"geometry":{"type":"MultiPolygon","coordinates":[[[[-73.93445,40.83599],[-73.92972,40.84524],[-73.92228,40.85566],[-73.92165,40.85737],[-73.91952,40.85879],[-73.91705,40.8619],[-73.91392,40.86475],[-73.91103,40.86916],[-73.91057,40.87212],[-73.91184,40.87347],[-73.91635,40.87453],[-73.92108,40.87306],[-73.92264,40.87459],[-73.9224,40.87675],[-73.92653,40.87759],[-73.92902,40.87575],[-73.93192,40.87114],[-73.93243,40.86758],[-73.93402,40.86504],[-73.9403,40.85665],[-73.94303,40.85263],[-73.94707,40.85024],[-73.94612,40.8439],[-73.94843,40.83987],[-73.95016,40.8344],[-73.94958,40.83443],[-73.94017,40.83039],[-73.93837,40.83313],[-73.93445,40.83599]]]]}},{"type":"Feature","properties":{"id":201,"name":"Mott Haven and Melrose (CD1)","borough":"Bronx","snap":45.6},"geometry":{"type":"MultiPolygon","coordinates":[[[[-73.90129,40.82048],[-73.90991,40.82256],[-73.91189,40.82215],[-73.91757,40.82389],[-73.92195,40.82104],[-73.92519,40.81802],[-73.93239,40.81951],[-73.93238,40.81466],[-73.93287,40.81042],[-73.93227,40.80835],[-73.92757,40.80269],[-73.92293,40.80238],[-73.92024,40.79962],[-73.91372,40.7968],[-73.91141,40.79669],[-73.9078,40.79927],[-73.90631,40.80156],[-73.90328,40.8047],[-73.90224,40.80505],[-73.90342,40.81151],[-73.90447,40.81229],[-73.90129,40.82048]]]]}},{"type":"Feature","properties":{"id":202,"name":"Hunts Point and Longwood (CD2)","borough":"Bronx","snap":41.9},"geometry":{"type":"MultiPolygon","coordinates":[[[[-73.90224,40.80505],[-73.90205,40.80477],[-73.89519,40.80655],[-73.88924,40.80595],[-73.88523,40.80143],[-73.88053,40.80257],[-73.87601,40.80206],[-73.87355,40.80086],[-73.87175,40.80156],[-73.86838,40.80658],[-73.87196,40.81374],[-73.87842,40.81596],[-73.88291,40.81954],[-73.88433,40.82262],[-73.88456,40.8253],[-73.88382,40.82834],[-73.88578,40.82791],[-73.8879,40.82675],[-73.89293,40.82679],[-73.89757,40.82943],[-73.90447,40.81229],[-73.90342,40.81151],[-73.90224,40.80505]]],[[[-73.89833,40.80242],[-73.89939,40.80194],[-73.89979,40.79952],[-73.89864,40.79911],[-73.89647,40.8008],[-73.89833,40.80242]]]]}},{"type":"Feature","properties":{"id":203,"name":"Morrisania and Crotona (CD3)","borough":"Bronx","snap":46.5},"geometry":{"type":"MultiPolygon","coordinates":[[[[-73.88072,40.83753],[-73.88611,40.84048],[-73.8866,40.83929],[-73.88942,40.83943],[-73.89538,40.84295],[-73.89482,40.84369],[-73.90269,40.84459],[-73.91217,40.82791],[-73.91757,40.82389],[-73.91189,40.82215],[-73.90991,40.82256],[-73.90129,40.82048],[-73.89757,40.82943],[-73.89293,40.82679],[-73.8879,40.82675],[-73.88578,40.82791],[-73.8851,40.83116],[-73.88072,40.83753]]]]}},{"type":"Feature","properties":{"id":204,"name":"Highbridge and Concourse (CD4)","borough":"Bronx","snap":38.7},"geometry":{"type":"MultiPolygon","coordinates":[[[[-73.90269,40.84459],[-73.91081,40.84514],[-73.92354,40.84477],[-73.92744,40.84658],[-73.93304,40.83569],[-73.93368,40.83295],[-73.93239,40.81951],[-73.92519,40.81802],[-73.92195,40.82104],[-73.91757,40.82389],[-73.91217,40.82791],[-73.90269,40.84459]]]]}},{"type":"Feature","properties":{"id":205,"name":"Fordham and University Heights (CD5)","borough":"Bronx","snap":42.1},"geometry":{"type":"MultiPolygon","coordinates":[[[[-73.89138,40.86171],[-73.90108,40.86277],[-73.90391,40.85838],[-73.90777,40.85962],[-73.90957,40.8576],[-73.91089,40.85878],[-73.91576,40.86065],[-73.92031,40.85643],[-73.92232,40.85315],[-73.92744,40.84658],[-73.92354,40.84477],[-73.91081,40.84514],[-73.90269,40.84459],[-73.90069,40.84832],[-73.89322,40.85988],[-73.89138,40.86171]]]]}},{"type":"Feature","properties":{"id":206,"name":"Belmont and East Tremont (CD6)","borough":"Bronx","snap":44.7},"geometry":{"type":"MultiPolygon","coordinates":[[[[-73.87185,40.84377],[-73.87457,40.84165],[-73.87798,40.84281],[-73.87725,40.84402],[-73.88264,40.84792],[-73.88059,40.85675],[-73.88036,40.86058],[-73.88371,40.8643],[-73.88309,40.8666],[-73.88802,40.8639],[-73.89068,40.86133],[-73.89138,40.86171],[-73.89322,40.85988],[-73.90069,40.84832],[-73.90269,40.84459],[-73.89482,40.84369],[-73.89538,40.84295],[-73.88942,40.83943],[-73.8866,40.83929],[-73.88611,40.84048],[-73.88072,40.83753],[-73.87723,40.83659],[-73.87377,40.83637],[-73.87185,40.84377]]]]}},{"type":"Feature","properties":{"id":207,"name":"Kingsbridge Heights and Bedford (CD7)","borough":"Bronx","snap":34.1},"geometry":{"type":"MultiPolygon","coordinates":[[[[-73.88309,40.8666],[-73.87695,40.86996],[-73.87519,40.87159],[-73.87255,40.87518],[-73.87024,40.88024],[-73.87479,40.88008],[-73.87468,40.88157],[-73.87813,40.88216],[-73.87761,40.88453],[-73.878,40.88743],[-73.88125,40.88272],[-73.88705,40.88436],[-73.88694,40.88269],[-73.88837,40.88228],[-73.89141,40.87898],[-73.89997,40.86803],[-73.90236,40.8687],[-73.90449,40.87059],[-73.90572,40.87315],[-73.91066,40.87398],[-73.90893,40.87217],[-73.91003,40.8672],[-73.91576,40.86065],[-73.91089,40.85878],[-73.90957,40.8576],[-73.90777,40.85962],[-73.90391,40.85838],[-73.90108,40.86277],[-73.89138,40.86171],[-73.89068,40.86133],[-73.88802,40.8639],[-73.88309,40.8666]]]]}},{"type":"Feature","properties":{"id":208,"name":"Riverdale and Fieldston (CD8)","borough":"Bronx","snap":18.4},"geometry":{"type":"MultiPolygon","coordinates":[[[[-73.88705,40.88436],[-73.88759,40.88426],[-73.89973,40.88652],[-73.89643,40.89366],[-73.89716,40.89938],[-73.89636,40.90321],[-73.89664,40.91143],[-73.90246,40.91297],[-73.91073,40.91578],[-73.91182,40.91295],[-73.91429,40.90425],[-73.91513,40.90313],[-73.91815,40.89412],[-73.91976,40.89114],[-73.92096,40.8873],[-73.9204,40.88714],[-73.9249,40.8789],[-73.92278,40.87886],[-73.91994,40.87649],[-73.91575,40.87569],[-73.91066,40.87398],[-73.90572,40.87315],[-73.90449,40.87059],[-73.90236,40.8687],[-73.89997,40.86803],[-73.89141,40.87898],[-73.88837,40.88228],[-73.88694,40.88269],[-73.88705,40.88436]]]]}},{"type":"Feature","properties":{"id":209,"name":"Parkchester and Soundview (CD9)","borough":"Bronx","snap":30.6},"geometry":{"type":"MultiPolygon","coordinates":[[[[-73.88433,40.82262],[-73.88055,40.81848],[-73.87751,40.81659],[-73.8711,40.81464],[-73.86746,40.81066],[-73.86249,40.8103],[-73.85921,40.81071],[-73.85867,40.80684],[-73.85781,40.80563],[-73.85415,40.80508],[-73.84955,40.80357],[-73.84798,40.80747],[-73.85029,40.80848],[-73.84872,40.81216],[-73.84609,40.81024],[-73.84229,40.81747],[-73.84201,40.81882],[-73.84,40.81994],[-73.83983,40.82158],[-73.84304,40.82894],[-73.84276,40.83083],[-73.83992,40.83333],[-73.8398,40.83563],[-73.85169,40.83421],[-73.85334,40.84248],[-73.86347,40.84131],[-73.8701,40.83925],[-73.87277,40.83976],[-73.87377,40.83637],[-73.87723,40.83659],[-73.88072,40.83753],[-73.8851,40.83116],[-73.88578,40.82791],[-73.88382,40.82834],[-73.88456,40.8253],[-73.88433,40.82262]]]]}},{"type":"Feature","properties":{"id":210,"name":"Throgs Neck and Co-op City (CD10)","borough":"Bronx","snap":17.3},"geometry":{"type":"MultiPolygon","coordinates":[[[[-73.8398,40.83563],[-73.83897,40.83362],[-73.84194,40.83073],[-73.84233,40.82908],[-73.83909,40.82197],[-73.84023,40.81723],[-73.83991,40.81448],[-73.84043,40.81188],[-73.83799,40.80623],[-73.83162,40.80495],[-73.83102,40.81102],[-73.82635,40.8112],[-73.82047,40.81318],[-73.81686,40.8137],[-73.81041,40.81296],[-73.80393,40.80854],[-73.80216,40.80885],[-73.7979,40.80639],[-73.79624,40.80619],[-73.79366,40.80439],[-73.79181,40.80401],[-73.79006,40.80542],[-73.79088,40.80665],[-73.79376,40.80746],[-73.79867,40.80996],[-73.80209,40.81009],[-73.80353,40.812],[-73.80011,40.81403],[-73.79912,40.81549],[-73.79738,40.81577],[-73.79823,40.81692],[-73.80247,40.81855],[-73.80351,40.81829],[-73.80573,40.82019],[-73.80708,40.825],[-73.80883,40.82567],[-73.81057,40.8247],[-73.81417,40.82591],[-73.81303,40.82891],[-73.8158,40.83176],[-73.81634,40.83804],[-73.81474,40.8391],[-73.81568,40.84243],[-73.81737,40.84377],[-73.81477,40.84513],[-73.8163,40.84858],[-73.82049,40.84851],[-73.82549,40.84584],[-73.82698,40.84809],[-73.82676,40.85301],[-73.8286,40.85573],[-73.82992,40.85619],[-73.83,40.85822],[-73.82054,40.86145],[-73.81889,40.86254],[-73.81994,40.86375],[-73.8204,40.86825],[-73.82164,40.86878],[-73.82394,40.87408],[-73.82119,40.88059],[-73.82066,40.88546],[-73.82579,40.88392],[-73.83007,40.88175],[-73.83348,40.87864],[-73.83449,40.87608],[-73.83373,40.87078],[-73.83101,40.86533],[-73.82835,40.86089],[-73.83112,40.85753],[-73.83393,40.85514],[-73.83571,40.85265],[-73.83647,40.84716],[-73.83839,40.84069],[-73.84125,40.84063],[-73.84491,40.84544],[-73.84807,40.84308],[-73.85334,40.84248],[-73.85169,40.83421],[-73.8398,40.83563]]],[[[-73.78345,40.84374],[-73.7831,40.84553],[-73.78108,40.84842],[-73.78436,40.85044],[-73.78434,40.85178],[-73.78791,40.8537],[-73.78898,40.85881],[-73.78981,40.85881],[-73.79252,40.85577],[-73.79031,40.8522],[-73.79018,40.84936],[-73.7917,40.84687],[-73.78974,40.84424],[-73.78736,40.83965],[-73.78586,40.83907],[-73.78409,40.83665],[-73.78187,40.83771],[-73.78116,40.83932],[-73.78172,40.8417],[-73.78345,40.84374]]],[[[-73.77119,40.84695],[-73.76901,40.84511],[-73.7673,40.84617],[-73.7696,40.8476],[-73.76819,40.85125],[-73.76783,40.85445],[-73.76533,40.85505],[-73.76751,40.85883],[-73.77068,40.86046],[-73.7724,40.86002],[-73.77242,40.85171],[-73.77089,40.84976],[-73.77119,40.84695]]],[[[-73.80264,40.84109],[-73.80393,40.8426],[-73.80681,40.8425],[-73.80695,40.84147],[-73.80264,40.84109]]],[[[-73.78431,40.85966],[-73.78755,40.85989],[-73.7875,40.85881],[-73.78431,40.85966]]]]}},{"type":"Feature","properties":{"id":211,"name":"Morris Park and Bronxdale (CD11)","borough":"Bronx","snap":24.1},"geometry":{"type":"MultiPolygon","coordinates":[[[[-73.82835,40.86089],[-73.83582,40.86504],[-73.8486,40.87168],[-73.85364,40.87331],[-73.85745,40.86954],[-73.87054,40.86968],[-73.87058,40.86141],[-73.87108,40.85739],[-73.86989,40.85598],[-73.86824,40.85092],[-73.86901,40.84801],[-73.87185,40.84377],[-73.87277,40.83976],[-73.8701,40.83925],[-73.86347,40.84131],[-73.84807,40.84308],[-73.84491,40.84544],[-73.84125,40.84063],[-73.83839,40.84069],[-73.83647,40.84716],[-73.83571,40.85265],[-73.83393,40.85514],[-73.83112,40.85753],[-73.82835,40.86089]]]]}},{"type":"Feature","properties":{"id":212,"name":"Williamsbridge and Baychester (CD12)","borough":"Bronx","snap":27.4},"geometry":{"type":"MultiPolygon","coordinates":[[[[-73.79386,40.88365],[-73.81828,40.88985],[-73.82286,40.89122],[-73.82327,40.88999],[-73.82723,40.89092],[-73.83804,40.89415],[-73.83965,40.89734],[-73.83925,40.89951],[-73.84088,40.90204],[-73.84139,40.90418],[-73.84489,40.9042],[-73.84482,40.90554],[-73.85017,40.90752],[-73.85091,40.90662],[-73.85348,40.90754],[-73.85693,40.90598],[-73.85711,40.90366],[-73.85947,40.90053],[-73.86789,40.90299],[-73.869,40.90157],[-73.87482,40.89845],[-73.87712,40.89548],[-73.88004,40.89523],[-73.88042,40.89312],[-73.878,40.88743],[-73.87761,40.88453],[-73.87813,40.88216],[-73.87468,40.88157],[-73.87479,40.88008],[-73.87024,40.88024],[-73.87255,40.87518],[-73.87519,40.87159],[-73.87056,40.87152],[-73.87054,40.86968],[-73.85745,40.86954],[-73.85364,40.87331],[-73.8486,40.87168],[-73.83582,40.86504],[-73.82835,40.86089],[-73.83101,40.86533],[-73.83373,40.87078],[-73.83449,40.87608],[-73.83348,40.87864],[-73.83007,40.88175],[-73.82579,40.88392],[-73.82066,40.88546],[-73.81548,40.8867],[-73.8121,40.88672],[-73.80551,40.8861],[-73.79417,40.883],[-73.79386,40.88365]]]]}},{"type":"Feature","properties":{"id":226,"name":"Bronx (CD26)","borough":"Bronx","snap":null},"geometry":{"type":"MultiPolygon","coordinates":[[[[-73.878,40.88743],[-73.88042,40.89312],[-73.88004,40.89523],[-73.87712,40.89548],[-73.87482,40.89845],[-73.869,40.90157],[-73.86789,40.90299],[-73.89664,40.91143],[-73.89636,40.90321],[-73.89716,40.89938],[-73.89643,40.89366],[-73.89973,40.88652],[-73.88759,40.88426],[-73.88705,40.88436],[-73.88125,40.88272],[-73.878,40.88743]]]]}},{"type":"Feature","properties":{"id":227,"name":"Bronx (CD27)","borough":"Bronx","snap":null},"geometry":{"type":"MultiPolygon","coordinates":[[[[-73.87185,40.84377],[-73.86901,40.84801],[-73.86824,40.85092],[-73.86989,40.85598],[-73.87108,40.85739],[-73.87058,40.86141],[-73.87056,40.87152],[-73.87519,40.87159],[-73.87695,40.86996],[-73.88309,40.8666],[-73.88371,40.8643],[-73.88036,40.86058],[-73.88059,40.85675],[-73.88264,40.84792],[-73.87725,40.84402],[-73.87798,40.84281],[-73.87457,40.84165],[-73.87185,40.84377]]]]}},{"type":"Feature","properties":{"id":301,"name":"Greenpoint and Williamsburg (CD1)","borough":"Brooklyn","snap":26.3},"geometry":{"type":"MultiPolygon","coordinates":[[[[-73.92189,40.7094],[-73.92075,40.71054],[-73.92223,40.71286],[-73.92406,40.71412],[-73.92489,40.71527],[-73.92306,40.71635],[-73.9246,40.71796],[-73.9278,40.72493],[-73.92958,40.72762],[-73.93693,40.72912],[-73.93975,40.73107],[-73.9424,40.73543],[-73.95199,40.73876],[-73.95693,40.73889],[-73.95983,40.73707],[-73.96276,40.73308],[-73.96143,40.73097],[-73.96114,40.72811],[-73.96191,40.72586],[-73.95875,40.72523],[-73.95892,40.72435],[-73.96182,40.72497],[-73.9635,40.72317],[-73.96776,40.71656],[-73.97034,40.70927],[-73.96913,40.70704],[-73.96721,40.70426],[-73.96218,40.70023],[-73.9619,40.6982],[-73.95702,40.69898],[-73.94193,40.70073],[-73.93395,40.70268],[-73.9259,40.70589],[-73.92189,40.7094]]]]}},{"type":"Feature","properties":{"id":302,"name":"Fort Greene and Brooklyn Heights (CD2)","borough":"Brooklyn","snap":11.0},"geometry":{"type":"MultiPolygon","coordinates":[[[[-73.95829,40.67984],[-73.96218,40.70023],[-73.96721,40.70426],[-73.96913,40.70704],[-73.97319,40.70566],[-73.96883,40.70168],[-73.96983,40.70019],[-73.97276,40.70263],[-73.97415,40.70125],[-73.97744,40.70333],[-73.97846,40.70576],[-73.98093,40.70538],[-73.99044,40.70486],[-73.99272,40.70555],[-73.99623,40.703],[-73.99733,40.70327],[-74.00194,40.69812],[-73.99964,40.69743],[-74.00087,40.69517],[-74.00288,40.69588],[-74.0035,40.69496],[-74.00145,40.69427],[-74.00229,40.69262],[-73.99237,40.6897],[-73.99393,40.68646],[-73.98046,40.68123],[-73.97878,40.68378],[-73.97395,40.68229],[-73.96768,40.68096],[-73.96753,40.68177],[-73.95829,40.67984]]]]}},{"type":"Feature","properties":{"id":303,"name":"Bedford Stuyvesant (CD3)","borough":"Brooklyn","snap":26.0},"geometry":{"type":"MultiPolygon","coordinates":[[[[-73.92182,40.67695],[-73.91647,40.67665],[-73.9163,40.67858],[-73.91805,40.68722],[-73.94193,40.70073],[-73.95702,40.69898],[-73.9619,40.6982],[-73.95829,40.67984],[-73.95207,40.6786],[-73.92182,40.67695]]]]}},{"type":"Feature","properties":{"id":304,"name":"Bushwick (CD4)","borough":"Brooklyn","snap":18.6},"geometry":{"type":"MultiPolygon","coordinates":[[[[-73.89647,40.68234],[-73.90116,40.68789],[-73.90043,40.68819],[-73.9019,40.69109],[-73.90124,40.69145],[-73.9058,40.69414],[-73.90426,40.69571],[-73.91181,40.69995],[-73.91068,40.70105],[-73.9129,40.70237],[-73.91181,40.70344],[-73.92189,40.7094],[-73.9259,40.70589],[-73.93395,40.70268],[-73.94193,40.70073],[-73.90405,40.67923],[-73.90262,40.68067],[-73.90025,40.67943],[-73.89749,40.68008],[-73.89647,40.68234]]]]}},{"type":"Feature","properties":{"id":305,"name":"East New York and Starrett City (CD5)","borough":"Brooklyn","snap":33.4},"geometry":{"type":"MultiPolygon","coordinates":[[[[-73.86219,40.65684],[-73.86317,40.65828],[-73.86036,40.65965],[-73.8576,40.66008],[-73.85843,40.66346],[-73.85569,40.66388],[-73.85763,40.67166],[-73.86039,40.67128],[-73.86235,40.67917],[-73.86329,40.67909],[-73.8641,40.68238],[-73.86603,40.68193],[-73.8686,40.69389],[-73.86843,40.69473],[-73.86892,40.69516],[-73.87402,40.6942],[-73.87951,40.69116],[-73.88378,40.68787],[-73.88452,40.68669],[-73.89252,40.68343],[-73.89418,40.68529],[-73.89647,40.68234],[-73.89749,40.68008],[-73.90025,40.67943],[-73.90262,40.68067],[-73.90405,40.67923],[-73.90348,40.67551],[-73.89761,40.65346],[-73.89355,40.65521],[-73.89137,40.65237],[-73.87919,40.64166],[-73.87798,40.63981],[-73.87394,40.64634],[-73.87342,40.64687],[-73.86939,40.64979],[-73.86053,40.65471],[-73.86219,40.65684]]]]}},{"type":"Feature","properties":{"id":306,"name":"Park Slope and Carroll Gardens (CD6)","borough":"Brooklyn","snap":8.8},"geometry":{"type":"MultiPolygon","coordinates":[[[[-73.97105,40.67524],[-73.97514,40.68088],[-73.97395,40.68229],[-73.97878,40.68378],[-73.98046,40.68123],[-73.99393,40.68646],[-73.99237,40.6897],[-74.00229,40.69262],[-74.00337,40.69054],[-74.00721,40.68685],[-74.01108,40.68442],[-74.00902,40.68321],[-74.01249,40.6807],[-74.0128,40.68336],[-74.01928,40.67966],[-74.01998,40.67708],[-74.01738,40.67347],[-74.01189,40.67045],[-74.0107,40.66898],[-74.01228,40.66574],[-74.01669,40.66544],[-74.01772,40.67095],[-74.01877,40.67108],[-74.01789,40.66586],[-74.01575,40.66458],[-74.01154,40.66509],[-74.00544,40.67093],[-74.00444,40.66773],[-74.00106,40.66895],[-74.00018,40.66861],[-73.99877,40.67161],[-73.99697,40.66924],[-73.98017,40.66116],[-73.97966,40.66125],[-73.97182,40.67064],[-73.97041,40.6726],[-73.97105,40.67524]]]]}},{"type":"Feature","properties":{"id":307,"name":"Sunset Park (CD7)","borough":"Brooklyn","snap":17.3},"geometry":{"type":"MultiPolygon","coordinates":[[[[-73.97225,40.65103],[-73.97419,40.65787],[-73.98017,40.66116],[-73.99697,40.66924],[-73.99877,40.67161],[-73.99909,40.66889],[-73.99722,40.66786],[-73.99895,40.6668],[-74.0004,40.66764],[-74.00293,40.66641],[-73.99956,40.66437],[-74.00094,40.66304],[-74.00544,40.66561],[-74.00486,40.66256],[-74.00554,40.66219],[-74.00903,40.66411],[-74.01451,40.66152],[-74.01359,40.65999],[-74.01596,40.65861],[-74.01765,40.65959],[-74.02458,40.65356],[-74.02384,40.65155],[-74.02564,40.64976],[-74.02407,40.64761],[-74.02505,40.647],[-74.02909,40.64878],[-74.03142,40.64671],[-74.0304,40.6454],[-74.0316,40.64421],[-74.03334,40.6446],[-74.0261,40.64028],[-74.02311,40.64],[-74.01977,40.63723],[-74.01313,40.63552],[-74.01059,40.63451],[-73.99605,40.64835],[-73.98906,40.64413],[-73.98181,40.64714],[-73.9714,40.64827],[-73.97225,40.65103]]]]}},{"type":"Feature","properties":{"id":308,"name":"Crown Heights and Prospect Heights (CD8)","borough":"Brooklyn","snap":18.7},"geometry":{"type":"MultiPolygon","coordinates":[[[[-73.92182,40.67695],[-73.95207,40.6786],[-73.96753,40.68177],[-73.96768,40.68096],[-73.97395,40.68229],[-73.97514,40.68088],[-73.97105,40.67524],[-73.96981,40.67543],[-73.96884,40.6731],[-73.95527,40.67013],[-73.92835,40.66866],[-73.92872,40.6645],[-73.92275,40.66711],[-73.92182,40.67695]]]]}},{"type":"Feature","properties":{"id":309,"name":"South Crown Heights and Lefferts Gardens (CD9)","borough":"Brooklyn","snap":21.8},"geometry":{"type":"MultiPolygon","coordinates":[[[[-73.92872,40.6645],[-73.92835,40.66866],[-73.95527,40.67013],[-73.9626,40.67165],[-73.96096,40.66329],[-73.96308,40.66214],[-73.9619,40.65488],[-73.9563,40.65506],[-73.9309,40.65662],[-73.9316,40.66324],[-73.92872,40.6645]]]]}},{"type":"Feature","properties":{"id":310,"name":"Bay Ridge and Dyker Heights (CD10)","borough":"Brooklyn","snap":14.7},"geometry":{"type":"MultiPolygon","coordinates":[[[[-73.99718,40.62672],[-73.99849,40.62721],[-74.01059,40.63451],[-74.01313,40.63552],[-74.01977,40.63723],[-74.02311,40.64],[-74.0261,40.64028],[-74.03334,40.6446],[-74.0367,40.64167],[-74.03578,40.64071],[-74.03727,40.63852],[-74.04152,40.62969],[-74.04249,40.62468],[-74.04225,40.62118],[-74.04067,40.61521],[-74.03792,40.61083],[-74.03394,40.60704],[-74.03005,40.60477],[-74.02008,40.60324],[-74.01945,40.60284],[-74.0155,40.60685],[-74.01702,40.60766],[-73.99718,40.62672]]]]}},{"type":"Feature","properties":{"id":311,"name":"Bensonhurst (CD11)","borough":"Brooklyn","snap":21.1},"geometry":{"type":"MultiPolygon","coordinates":[[[[-73.973,40.60882],[-73.97399,40.61404],[-73.97497,40.61368],[-73.99398,40.62515],[-73.99718,40.62672],[-74.01702,40.60766],[-74.0155,40.60685],[-74.01945,40.60284],[-74.01478,40.60202],[-74.01201,40.60094],[-74.00625,40.59742],[-74.00345,40.59619],[-74.00095,40.59252],[-73.99915,40.59295],[-73.99711,40.59129],[-73.99859,40.59055],[-73.99802,40.58843],[-73.99447,40.58882],[-73.99154,40.5904],[-73.9852,40.59641],[-73.98372,40.59583],[-73.97324,40.59699],[-73.97218,40.6042],[-73.973,40.60882]]]]}},{"type":"Feature","properties":{"id":312,"name":"Borough Park (CD12)","borough":"Brooklyn","snap":35.5},"geometry":{"type":"MultiPolygon","coordinates":[[[[-73.96238,40.60999],[-73.96591,40.62866],[-73.97652,40.6273],[-73.97762,40.63316],[-73.97256,40.63372],[-73.97242,40.633],[-73.96763,40.63525],[-73.9714,40.64827],[-73.98181,40.64714],[-73.98906,40.64413],[-73.99605,40.64835],[-74.01059,40.63451],[-73.99849,40.62721],[-73.99398,40.62515],[-73.97497,40.61368],[-73.97399,40.61404],[-73.973,40.60882],[-73.96238,40.60999]]]]}},{"type":"Feature","properties":{"id":313,"name":"Coney Island (CD13)","borough":"Brooklyn","snap":31.4},"geometry":{"type":"MultiPolygon","coordinates":[[[[-73.95381,40.57437],[-73.95365,40.57583],[-73.95494,40.58198],[-73.95713,40.58305],[-73.96005,40.58328],[-73.96052,40.58946],[-73.97434,40.58795],[-73.97422,40.59012],[-73.98372,40.59583],[-73.9852,40.59641],[-73.99154,40.5904],[-73.99447,40.58882],[-73.99953,40.58649],[-73.99842,40.58566],[-74.00042,40.58355],[-73.99588,40.58248],[-73.99065,40.58475],[-73.99232,40.58149],[-73.98746,40.58039],[-73.98843,40.57882],[-73.99949,40.58143],[-74.00293,40.58111],[-74.00484,40.58186],[-74.00661,40.58089],[-74.01048,40.58045],[-74.01275,40.57857],[-74.01221,40.57478],[-74.01141,40.57399],[-74.00689,40.573],[-74.00052,40.57111],[-73.99505,40.57048],[-73.99073,40.5706],[-73.98918,40.57127],[-73.97767,40.57141],[-73.9725,40.57265],[-73.9641,40.57378],[-73.95381,40.57437]]]]}},{"type":"Feature","properties":{"id":314,"name":"Flatbush and Midwood (CD14)","borough":"Brooklyn","snap":21.2},"geometry":{"type":"MultiPolygon","coordinates":[[[[-73.96238,40.60999],[-73.9536,40.61096],[-73.95078,40.61164],[-73.94483,40.61605],[-73.94733,40.62917],[-73.94416,40.62952],[-73.94551,40.6308],[-73.94587,40.63413],[-73.94777,40.63401],[-73.94827,40.63862],[-73.9536,40.63843],[-73.95413,40.63917],[-73.95473,40.64478],[-73.95565,40.64664],[-73.9563,40.65506],[-73.9619,40.65488],[-73.97225,40.65103],[-73.96763,40.63525],[-73.97242,40.633],[-73.97256,40.63372],[-73.97762,40.63316],[-73.97652,40.6273],[-73.96591,40.62866],[-73.96238,40.60999]]]]}},{"type":"Feature","properties":{"id":315,"name":"Sheepshead Bay (CD15)","borough":"Brooklyn","snap":19.6},"geometry":{"type":"MultiPolygon","coordinates":[[[[-73.91751,40.58617],[-73.92034,40.58462],[-73.92611,40.58483],[-73.93114,40.5895],[-73.92816,40.58886],[-73.92491,40.5857],[-73.92114,40.5857],[-73.91799,40.58654],[-73.92957,40.59683],[-73.92813,40.59779],[-73.93355,40.6027],[-73.93426,40.60224],[-73.93844,40.60598],[-73.93789,40.6066],[-73.94406,40.612],[-73.94483,40.61605],[-73.95078,40.61164],[-73.9536,40.61096],[-73.973,40.60882],[-73.97218,40.6042],[-73.97324,40.59699],[-73.98372,40.59583],[-73.97422,40.59012],[-73.97434,40.58795],[-73.96052,40.58946],[-73.96005,40.58328],[-73.95713,40.58305],[-73.95494,40.58198],[-73.95365,40.57583],[-73.95381,40.57437],[-73.95258,40.57415],[-73.94457,40.57528],[-73.93495,40.57528],[-73.93112,40.57612],[-73.93245,40.58114],[-73.94036,40.58104],[-73.94414,40.58129],[-73.9497,40.58233],[-73.9533,40.58201],[-73.95349,40.583],[-73.94837,40.5835],[-73.93544,40.58328],[-73.93075,40.5828],[-73.92965,40.58345],[-73.92999,40.58424],[-73.91986,40.58375],[-73.91583,40.58453],[-73.91751,40.58617]]]]}},{"type":"Feature","properties":{"id":316,"name":"Brownsville (CD16)","borough":"Brooklyn","snap":37.9},"geometry":{"type":"MultiPolygon","coordinates":[[[[-73.89922,40.65912],[-73.90348,40.67551],[-73.90405,40.67923],[-73.91805,40.68722],[-73.9163,40.67858],[-73.91647,40.67665],[-73.92182,40.67695],[-73.92275,40.66711],[-73.92445,40.66637],[-73.90755,40.65119],[-73.90062,40.65602],[-73.89922,40.65912]]]]}},{"type":"Feature","properties":{"id":317,"name":"East Flatbush (CD17)","borough":"Brooklyn","snap":21.8},"geometry":{"type":"MultiPolygon","coordinates":[[[[-73.90755,40.65119],[-73.92445,40.66637],[-73.9316,40.66324],[-73.9309,40.65662],[-73.9563,40.65506],[-73.95565,40.64664],[-73.95473,40.64478],[-73.95413,40.63917],[-73.9536,40.63843],[-73.94827,40.63862],[-73.94777,40.63401],[-73.94587,40.63413],[-73.94551,40.6308],[-73.93802,40.6321],[-73.92559,40.63843],[-73.92333,40.63991],[-73.91593,40.64578],[-73.90755,40.65119]]]]}},{"type":"Feature","properties":{"id":318,"name":"Flatlands and Canarsie (CD18)","borough":"Brooklyn","snap":15.9},"geometry":{"type":"MultiPolygon","coordinates":[[[[-73.87798,40.63981],[-73.87919,40.64166],[-73.89137,40.65237],[-73.89355,40.65521],[-73.89761,40.65346],[-73.89922,40.65912],[-73.90062,40.65602],[-73.90755,40.65119],[-73.91593,40.64578],[-73.92333,40.63991],[-73.92559,40.63843],[-73.93802,40.6321],[-73.94551,40.6308],[-73.94416,40.62952],[-73.94733,40.62917],[-73.94406,40.612],[-73.93789,40.6066],[-73.93844,40.60598],[-73.93426,40.60224],[-73.93355,40.6027],[-73.92813,40.59779],[-73.92957,40.59683],[-73.91799,40.58654],[-73.91378,40.58877],[-73.91515,40.59089],[-73.9188,40.59454],[-73.92087,40.59473],[-73.92722,40.59967],[-73.93199,40.60262],[-73.9295,40.60393],[-73.92849,40.60192],[-73.92408,40.59926],[-73.92209,40.60172],[-73.91574,40.59929],[-73.91186,40.59411],[-73.91178,40.58632],[-73.90837,40.58969],[-73.90829,40.59554],[-73.90702,40.59768],[-73.90015,40.60178],[-73.89885,40.60389],[-73.89866,40.60525],[-73.89731,40.61031],[-73.89742,40.61927],[-73.89696,40.62157],[-73.89637,40.62273],[-73.89335,40.62571],[-73.88837,40.62893],[-73.8847,40.62977],[-73.88429,40.63135],[-73.88133,40.63427],[-73.87887,40.63801],[-73.87798,40.63981]]],[[[-73.9206,40.59622],[-73.91721,40.59403],[-73.91458,40.59162],[-73.91237,40.59289],[-73.9157,40.59757],[-73.9189,40.59954],[-73.92194,40.5997],[-73.92244,40.59844],[-73.9206,40.59622]]],[[[-73.91583,40.58453],[-73.91283,40.58576],[-73.91751,40.58617],[-73.91583,40.58453]]]]}},{"type":"Feature","properties":{"id":401,"name":"Long Island City and Astoria (CD1)","borough":"Queens","snap":13.5},"geometry":{"type":"MultiPolygon","coordinates":[[[[-73.95081,40.75527],[-73.94876,40.75491],[-73.93744,40.74974],[-73.93684,40.7484],[-73.93153,40.75117],[-73.92463,40.75165],[-73.92134,40.75122],[-73.92054,40.74976],[-73.90984,40.75165],[-73.91023,40.75299],[-73.89812,40.75423],[-73.89985,40.75757],[-73.89941,40.75882],[-73.89432,40.76615],[-73.89145,40.76608],[-73.88771,40.76685],[-73.88873,40.76892],[-73.88943,40.77305],[-73.89289,40.77382],[-73.89657,40.77625],[-73.89423,40.77816],[-73.89286,40.77717],[-73.8912,40.77857],[-73.89252,40.77954],[-73.89145,40.78076],[-73.89618,40.78325],[-73.89563,40.78521],[-73.90033,40.78902],[-73.90986,40.79095],[-73.9126,40.78939],[-73.91683,40.7852],[-73.92475,40.7787],[-73.92988,40.77623],[-73.93179,40.77788],[-73.93508,40.77795],[-73.93766,40.77509],[-73.93747,40.77251],[-73.93496,40.77174],[-73.93574,40.76937],[-73.9382,40.76874],[-73.94131,40.76693],[-73.9435,40.76451],[-73.95081,40.75527]]],[[[-73.88257,40.79533],[-73.88767,40.79839],[-73.89026,40.79807],[-73.89196,40.79686],[-73.89282,40.79283],[-73.89218,40.7904],[-73.89057,40.79012],[-73.88831,40.78701],[-73.87831,40.78536],[-73.87343,40.7858],[-73.87081,40.78791],[-73.87123,40.79008],[-73.87354,40.7919],[-73.87789,40.79433],[-73.88257,40.79533]]]]}},{"type":"Feature","properties":{"id":402,"name":"Woodside and Sunnyside (CD2)","borough":"Queens","snap":9.6},"geometry":{"type":"MultiPolygon","coordinates":[[[[-73.8877,40.7343],[-73.89089,40.7407],[-73.89734,40.75143],[-73.89812,40.75423],[-73.91023,40.75299],[-73.90984,40.75165],[-73.92054,40.74976],[-73.92134,40.75122],[-73.92463,40.75165],[-73.93153,40.75117],[-73.93684,40.7484],[-73.93744,40.74974],[-73.94876,40.75491],[-73.95081,40.75527],[-73.95705,40.74893],[-73.96081,40.74332],[-73.96261,40.73877],[-73.96073,40.73809],[-73.95711,40.73963],[-73.95381,40.73983],[-73.94715,40.73791],[-73.94209,40.7396],[-73.94146,40.73926],[-73.94594,40.73751],[-73.9418,40.73597],[-73.93911,40.73139],[-73.93648,40.72969],[-73.92861,40.72793],[-73.92656,40.72568],[-73.92419,40.72428],[-73.92037,40.72369],[-73.92007,40.72275],[-73.91656,40.72201],[-73.91257,40.72325],[-73.90518,40.72897],[-73.90063,40.73447],[-73.89923,40.73512],[-73.8877,40.7343]]]]}},{"type":"Feature","properties":{"id":403,"name":"Jackson Heights (CD3)","borough":"Queens","snap":14.2},"geometry":{"type":"MultiPolygon","coordinates":[[[[-73.85221,40.75267],[-73.8538,40.75719],[-73.85217,40.75747],[-73.8553,40.76066],[-73.85975,40.76289],[-73.86276,40.76677],[-73.8634,40.76646],[-73.86728,40.76966],[-73.87072,40.7714],[-73.87328,40.77178],[-73.87855,40.77078],[-73.88277,40.76854],[-73.88771,40.76685],[-73.89145,40.76608],[-73.89432,40.76615],[-73.89941,40.75882],[-73.89985,40.75757],[-73.89812,40.75423],[-73.89734,40.75143],[-73.89445,40.74654],[-73.86112,40.75003],[-73.85221,40.75267]]]]}},{"type":"Feature","properties":{"id":404,"name":"Elmhurst and Corona (CD4)","borough":"Queens","snap":15.8},"geometry":{"type":"MultiPolygon","coordinates":[[[[-73.84751,40.73902],[-73.8478,40.74006],[-73.85012,40.74073],[-73.85443,40.74886],[-73.85087,40.75],[-73.85221,40.75267],[-73.86112,40.75003],[-73.89445,40.74654],[-73.89089,40.7407],[-73.8877,40.7343],[-73.88559,40.72828],[-73.87969,40.72902],[-73.87509,40.73068],[-73.85662,40.73634],[-73.85245,40.73721],[-73.84751,40.73902]]]]}},{"type":"Feature","properties":{"id":405,"name":"Ridgewood and Maspeth (CD5)","borough":"Queens","snap":11.6},"geometry":{"type":"MultiPolygon","coordinates":[[[[-73.86892,40.69516],[-73.87058,40.6977],[-73.86887,40.69903],[-73.86751,40.70182],[-73.86524,40.70271],[-73.86013,40.70243],[-73.85893,40.70133],[-73.85529,40.7026],[-73.85592,40.70401],[-73.85818,40.70556],[-73.85924,40.7073],[-73.86004,40.71494],[-73.86524,40.71999],[-73.86931,40.72447],[-73.87146,40.72933],[-73.87509,40.73068],[-73.87969,40.72902],[-73.88559,40.72828],[-73.8877,40.7343],[-73.89923,40.73512],[-73.90063,40.73447],[-73.90518,40.72897],[-73.91257,40.72325],[-73.91656,40.72201],[-73.92007,40.72275],[-73.92037,40.72369],[-73.92452,40.72356],[-73.92394,40.71905],[-73.92233,40.71608],[-73.92406,40.71412],[-73.92223,40.71286],[-73.92075,40.71054],[-73.92189,40.7094],[-73.91181,40.70344],[-73.9129,40.70237],[-73.91068,40.70105],[-73.91181,40.69995],[-73.90426,40.69571],[-73.9058,40.69414],[-73.90124,40.69145],[-73.9019,40.69109],[-73.90043,40.68819],[-73.90116,40.68789],[-73.89647,40.68234],[-73.89418,40.68529],[-73.89252,40.68343],[-73.88452,40.68669],[-73.88378,40.68787],[-73.87951,40.69116],[-73.87402,40.6942],[-73.86892,40.69516]]]]}},{"type":"Feature","properties":{"id":406,"name":"Rego Park and Forest Hills (CD6)","borough":"Queens","snap":11.7},"geometry":{"type":"MultiPolygon","coordinates":[[[[-73.82606,40.71541],[-73.83043,40.71697],[-73.83232,40.71834],[-73.83555,40.72198],[-73.8392,40.72827],[-73.84285,40.73208],[-73.84429,40.73421],[-73.84547,40.73788],[-73.84751,40.73902],[-73.85245,40.73721],[-73.85662,40.73634],[-73.87509,40.73068],[-73.87146,40.72933],[-73.86931,40.72447],[-73.86524,40.71999],[-73.86004,40.71494],[-73.85924,40.7073],[-73.85818,40.70556],[-73.85592,40.70401],[-73.85529,40.7026],[-73.85473,40.70677],[-73.84951,40.70835],[-73.84454,40.70867],[-73.8359,40.71165],[-73.83124,40.71416],[-73.82606,40.71541]]]]}},{"type":"Feature","properties":{"id":407,"name":"Flushing and Whitestone (CD7)","borough":"Queens","snap":14.3},"geometry":{"type":"MultiPolygon","coordinates":[[[[-73.77063,40.78208],[-73.77414,40.78592],[-73.7738,40.78693],[-73.77109,40.78792],[-73.77272,40.79175],[-73.77622,40.79613],[-73.77943,40.79667],[-73.78154,40.79567],[-73.7807,40.79366],[-73.78108,40.79169],[-73.78571,40.79037],[-73.79028,40.79033],[-73.79259,40.7888],[-73.79373,40.78904],[-73.79498,40.79191],[-73.79445,40.79445],[-73.79874,40.79598],[-73.8049,40.79607],[-73.81163,40.7974],[-73.81283,40.79719],[-73.81604,40.79855],[-73.8195,40.80083],[-73.82071,40.80058],[-73.82517,40.79734],[-73.82674,40.7978],[-73.82906,40.79657],[-73.82779,40.7934],[-73.82906,40.79194],[-73.83173,40.79104],[-73.8321,40.7888],[-73.83383,40.78854],[-73.83723,40.78963],[-73.83651,40.79174],[-73.8384,40.79676],[-73.8406,40.79682],[-73.84143,40.7955],[-73.84452,40.79489],[-73.84625,40.79617],[-73.84871,40.79543],[-73.84924,40.79339],[-73.85249,40.79468],[-73.85375,40.7923],[-73.85267,40.79109],[-73.85447,40.79027],[-73.8548,40.78863],[-73.85914,40.78572],[-73.85808,40.78373],[-73.85545,40.78315],[-73.85517,40.78196],[-73.85315,40.78233],[-73.84985,40.7816],[-73.8498,40.77876],[-73.84896,40.77797],[-73.84896,40.77375],[-73.84995,40.77207],[-73.84859,40.77051],[-73.84901,40.76922],[-73.84777,40.76678],[-73.84449,40.76547],[-73.84031,40.7663],[-73.83822,40.76568],[-73.83646,40.76309],[-73.83624,40.76125],[-73.83996,40.75384],[-73.83799,40.75452],[-73.83508,40.75016],[-73.83469,40.74691],[-73.83592,40.74344],[-73.83113,40.74235],[-73.83143,40.73914],[-73.83054,40.73753],[-73.82809,40.73709],[-73.82794,40.7385],[-73.82481,40.73964],[-73.82537,40.74224],[-73.81594,40.73914],[-73.81323,40.73871],[-73.79822,40.73818],[-73.7964,40.73829],[-73.79723,40.7417],[-73.79445,40.74521],[-73.79482,40.74843],[-73.79458,40.75357],[-73.79238,40.75308],[-73.79344,40.76161],[-73.79217,40.77099],[-73.79271,40.7738],[-73.77679,40.77842],[-73.77063,40.78208]]],[[[-73.83912,40.75684],[-73.83708,40.76119],[-73.83796,40.76401],[-73.84053,40.7654],[-73.84261,40.76469],[-73.84197,40.76361],[-73.84002,40.76415],[-73.83925,40.76192],[-73.84122,40.76231],[-73.84585,40.76046],[-73.84324,40.75534],[-73.83912,40.75684]]]]}},{"type":"Feature","properties":{"id":408,"name":"Hillcrest and Fresh Meadows (CD8)","borough":"Queens","snap":14.3},"geometry":{"type":"MultiPolygon","coordinates":[[[[-73.75944,40.72107],[-73.75409,40.7247],[-73.76161,40.72906],[-73.76565,40.73254],[-73.7637,40.73287],[-73.76471,40.73409],[-73.7625,40.73474],[-73.7626,40.7371],[-73.76557,40.74327],[-73.76773,40.74578],[-73.77362,40.74364],[-73.78037,40.7426],[-73.7964,40.73829],[-73.79822,40.73818],[-73.81323,40.73871],[-73.81594,40.73914],[-73.82537,40.74224],[-73.82481,40.73964],[-73.82794,40.7385],[-73.82809,40.73709],[-73.83054,40.73753],[-73.83143,40.73914],[-73.83113,40.74235],[-73.83592,40.74344],[-73.83768,40.74331],[-73.83636,40.73502],[-73.83255,40.72731],[-73.82769,40.7229],[-73.82617,40.71993],[-73.8256,40.71552],[-73.8232,40.71221],[-73.82045,40.70978],[-73.8171,40.70404],[-73.81524,40.70421],[-73.79473,40.71002],[-73.7886,40.71235],[-73.78785,40.71182],[-73.77357,40.71513],[-73.76733,40.7173],[-73.75944,40.72107]]]]}},{"type":"Feature","properties":{"id":409,"name":"Kew Gardens and Woodhaven (CD9)","borough":"Queens","snap":17.1},"geometry":{"type":"MultiPolygon","coordinates":[[[[-73.81063,40.69196],[-73.81407,40.6979],[-73.8171,40.70404],[-73.82045,40.70978],[-73.8232,40.71221],[-73.8256,40.71552],[-73.83124,40.71416],[-73.8359,40.71165],[-73.83405,40.71004],[-73.83681,40.70845],[-73.83799,40.70675],[-73.83696,40.70422],[-73.84157,40.70111],[-73.84503,40.69937],[-73.84914,40.69829],[-73.84984,40.70013],[-73.8541,40.70052],[-73.85277,40.69756],[-73.85657,40.69707],[-73.86843,40.69473],[-73.8686,40.69389],[-73.86603,40.68193],[-73.8641,40.68238],[-73.86329,40.67909],[-73.85393,40.67969],[-73.81063,40.69196]]]]}},{"type":"Feature","properties":{"id":410,"name":"South Ozone Park and Howard Beach (CD10)","borough":"Queens","snap":15.0},"geometry":{"type":"MultiPolygon","coordinates":[[[[-73.80168,40.66633],[-73.80117,40.67221],[-73.80168,40.67439],[-73.80734,40.68613],[-73.81063,40.69196],[-73.85393,40.67969],[-73.86235,40.67917],[-73.86039,40.67128],[-73.85763,40.67166],[-73.85569,40.66388],[-73.85843,40.66346],[-73.8576,40.66008],[-73.86036,40.65965],[-73.86317,40.65828],[-73.86219,40.65684],[-73.86063,40.65696],[-73.85735,40.65307],[-73.85606,40.65322],[-73.85413,40.65049],[-73.8492,40.65103],[-73.8519,40.64762],[-73.85183,40.64587],[-73.84951,40.64414],[-73.83633,40.64533],[-73.83739,40.64913],[-73.83682,40.64926],[-73.83979,40.66049],[-73.83879,40.6611],[-73.83572,40.64939],[-73.82701,40.65087],[-73.82826,40.65604],[-73.83248,40.66498],[-73.82585,40.6634],[-73.82306,40.66354],[-73.81497,40.66248],[-73.81166,40.66262],[-73.81203,40.66136],[-73.8073,40.66066],[-73.8061,40.66484],[-73.80204,40.66526],[-73.80168,40.66633]]]]}},{"type":"Feature","properties":{"id":411,"name":"Bayside and Little Neck (CD11)","borough":"Queens","snap":8.5},"geometry":{"type":"MultiPolygon","coordinates":[[[[-73.71352,40.75985],[-73.72114,40.76488],[-73.74412,40.77865],[-73.75081,40.7829],[-73.753,40.7813],[-73.75504,40.77644],[-73.7532,40.77283],[-73.75552,40.77146],[-73.75487,40.77004],[-73.75547,40.76637],[-73.75886,40.76751],[-73.75907,40.76846],[-73.76438,40.77302],[-73.76707,40.77681],[-73.76782,40.77882],[-73.77063,40.78208],[-73.77679,40.77842],[-73.79271,40.7738],[-73.79217,40.77099],[-73.79344,40.76161],[-73.79238,40.75308],[-73.79458,40.75357],[-73.79482,40.74843],[-73.79445,40.74521],[-73.79723,40.7417],[-73.7964,40.73829],[-73.78037,40.7426],[-73.77362,40.74364],[-73.76773,40.74578],[-73.76557,40.74327],[-73.7626,40.7371],[-73.7625,40.73474],[-73.76471,40.73409],[-73.7637,40.73287],[-73.76565,40.73254],[-73.76161,40.72906],[-73.7567,40.72624],[-73.75048,40.72923],[-73.74295,40.73546],[-73.73933,40.73948],[-73.73437,40.74236],[-73.73107,40.7449],[-73.72907,40.7474],[-73.7271,40.75135],[-73.72385,40.75346],[-73.72097,40.7573],[-73.71767,40.75932],[-73.71352,40.75985]]]]}},{"type":"Feature","properties":{"id":412,"name":"Jamaica and Hollis (CD12)","borough":"Queens","snap":21.0},"geometry":{"type":"MultiPolygon","coordinates":[[[[-73.80168,40.66633],[-73.79003,40.66634],[-73.77445,40.66748],[-73.77018,40.66732],[-73.75796,40.66596],[-73.75644,40.66967],[-73.75582,40.67576],[-73.75226,40.6815],[-73.75009,40.68593],[-73.74485,40.69315],[-73.75121,40.70732],[-73.75371,40.71333],[-73.75944,40.72107],[-73.76733,40.7173],[-73.77357,40.71513],[-73.78785,40.71182],[-73.7886,40.71235],[-73.79473,40.71002],[-73.81524,40.70421],[-73.8171,40.70404],[-73.81407,40.6979],[-73.80734,40.68613],[-73.80168,40.67439],[-73.80117,40.67221],[-73.80168,40.66633]]]]}},{"type":"Feature","properties":{"id":413,"name":"Queens Village (CD13)","borough":"Queens","snap":12.1},"geometry":{"type":"MultiPolygon","coordinates":[[[[-73.74661,40.63802],[-73.74421,40.63769],[-73.7437,40.63893],[-73.74093,40.63771],[-73.74274,40.635],[-73.73947,40.63571],[-73.74228,40.64013],[-73.74142,40.64051],[-73.74144,40.6469],[-73.73419,40.65021],[-73.7299,40.65064],[-73.7251,40.65235],[-73.72576,40.65701],[-73.72793,40.66176],[-73.72827,40.66644],[-73.72756,40.67417],[-73.72563,40.6796],[-73.7262,40.68899],[-73.72705,40.70951],[-73.72697,40.71067],[-73.72918,40.71917],[-73.73033,40.72217],[-73.72567,40.72405],[-73.71829,40.72605],[-73.70766,40.72784],[-73.70081,40.73845],[-73.70001,40.73933],[-73.70163,40.7525],[-73.71352,40.75985],[-73.71767,40.75932],[-73.72097,40.7573],[-73.72385,40.75346],[-73.7271,40.75135],[-73.72907,40.7474],[-73.73107,40.7449],[-73.73437,40.74236],[-73.73933,40.73948],[-73.74295,40.73546],[-73.75048,40.72923],[-73.7567,40.72624],[-73.75409,40.7247],[-73.75944,40.72107],[-73.75371,40.71333],[-73.75121,40.70732],[-73.74485,40.69315],[-73.75009,40.68593],[-73.75226,40.6815],[-73.75582,40.67576],[-73.75644,40.66967],[-73.75796,40.66596],[-73.77018,40.66732],[-73.77445,40.66748],[-73.79003,40.66634],[-73.80168,40.66633],[-73.80204,40.66526],[-73.79523,40.66489],[-73.78503,40.66343],[-73.77448,40.65891],[-73.76895,40.65568],[-73.7667,40.65581],[-73.74848,40.6455],[-73.74399,40.64126],[-73.7446,40.63953],[-73.74661,40.63802]]]]}},{"type":"Feature","properties":{"id":414,"name":"Rockaway and Broad Channel (CD14)","borough":"Queens","snap":26.0},"geometry":{"type":"MultiPolygon","coordinates":[[[[-73.90904,40.55578],[-73.90924,40.56077],[-73.91062,40.56382],[-73.91003,40.5648],[-73.9122,40.56506],[-73.91767,40.56251],[-73.92009,40.56184],[-73.92422,40.56196],[-73.92616,40.56098],[-73.93291,40.55968],[-73.93119,40.55702],[-73.92814,40.55125],[-73.9125,40.55543],[-73.90904,40.55578]]],[[[-73.89613,40.56537],[-73.89554,40.56403],[-73.88537,40.56686],[-73.88655,40.56848],[-73.8896,40.56795],[-73.89261,40.5686],[-73.89562,40.56689],[-73.89613,40.56537]]],[[[-73.86287,40.56684],[-73.85397,40.57032],[-73.83779,40.57593],[-73.83387,40.57766],[-73.81353,40.58348],[-73.80793,40.58401],[-73.80378,40.58502],[-73.78453,40.58849],[-73.78058,40.58957],[-73.76134,40.59173],[-73.75592,40.59088],[-73.75147,40.59148],[-73.74895,40.59341],[-73.74665,40.59429],[-73.74223,40.59491],[-73.73771,40.5945],[-73.73831,40.59822],[-73.73815,40.60272],[-73.74315,40.60727],[-73.74576,40.612],[-73.74722,40.61219],[-73.75473,40.61042],[-73.76172,40.61185],[-73.76506,40.61204],[-73.76521,40.61379],[-73.77073,40.61429],[-73.77352,40.61354],[-73.77377,40.61126],[-73.7722,40.6115],[-73.76918,40.60971],[-73.7711,40.6006],[-73.77107,40.5983],[-73.77307,40.5979],[-73.77423,40.59901],[-73.77498,40.60176],[-73.77742,40.59882],[-73.78002,40.5971],[-73.78201,40.59896],[-73.78032,40.60062],[-73.77823,40.60037],[-73.77604,40.60253],[-73.77413,40.60876],[-73.77713,40.60986],[-73.7794,40.60923],[-73.78396,40.60487],[-73.78352,40.60255],[-73.78917,40.59789],[-73.78918,40.59519],[-73.79062,40.59479],[-73.7911,40.5968],[-73.79034,40.5992],[-73.78785,40.60101],[-73.78801,40.60316],[-73.79233,40.59997],[-73.80292,40.59895],[-73.80512,40.59716],[-73.80259,40.59439],[-73.80244,40.59265],[-73.8039,40.59309],[-73.80464,40.59491],[-73.80711,40.5953],[-73.80991,40.59226],[-73.81674,40.58933],[-73.82146,40.58678],[-73.82326,40.58748],[-73.82801,40.5861],[-73.82853,40.58486],[-73.83584,40.58288],[-73.83869,40.58271],[-73.83924,40.58188],[-73.84521,40.58159],[-73.85044,40.58214],[-73.85306,40.58126],[-73.86288,40.57607],[-73.86361,40.57383],[-73.86663,40.57307],[-73.86447,40.56915],[-73.86534,40.56879],[-73.86287,40.56684]]],[[[-73.82386,40.60999],[-73.82113,40.60968],[-73.82158,40.61196],[-73.82045,40.61186],[-73.81947,40.60974],[-73.82097,40.60733],[-73.82325,40.60582],[-73.82243,40.60537],[-73.82289,40.60259],[-73.82442,40.60041],[-73.83071,40.59847],[-73.83247,40.59857],[-73.83458,40.59698],[-73.83421,40.5955],[-73.83261,40.5951],[-73.82901,40.59567],[-73.82475,40.59468],[-73.82071,40.59518],[-73.81849,40.5994],[-73.81726,40.60395],[-73.81511,40.60692],[-73.81602,40.60916],[-73.8154,40.61039],[-73.81623,40.61288],[-73.81392,40.61239],[-73.81439,40.61449],[-73.81646,40.61368],[-73.81717,40.61484],[-73.82076,40.61524],[-73.8238,40.61214],[-73.82386,40.60999]]]]}},{"type":"Feature","properties":{"id":480,"name":"St. George and Stapleton (CD1)","borough":"Queens","snap":null},"geometry":{"type":"MultiPolygon","coordinates":[[[[-73.86276,40.76677],[-73.85877,40.76736],[-73.85505,40.7722],[-73.86471,40.77674],[-73.87256,40.78083],[-73.86943,40.7836],[-73.86969,40.7853],[-73.87125,40.78605],[-73.87516,40.78152],[-73.87834,40.78303],[-73.87931,40.78077],[-73.88494,40.77994],[-73.88522,40.77867],[-73.88432,40.77419],[-73.88946,40.77354],[-73.89002,40.77725],[-73.89286,40.77717],[-73.89423,40.77816],[-73.89657,40.77625],[-73.89289,40.77382],[-73.88943,40.77305],[-73.88873,40.76892],[-73.88771,40.76685],[-73.88277,40.76854],[-73.87855,40.77078],[-73.87328,40.77178],[-73.87072,40.7714],[-73.86728,40.76966],[-73.8634,40.76646],[-73.86276,40.76677]]]]}},{"type":"Feature","properties":{"id":481,"name":"Queens (CD81)","borough":"Queens","snap":null},"geometry":{"type":"MultiPolygon","coordinates":[[[[-73.83912,40.75684],[-73.84324,40.75534],[-73.84585,40.76046],[-73.84122,40.76231],[-73.83925,40.76192],[-73.84002,40.76415],[-73.84197,40.76361],[-73.84261,40.76469],[-73.84301,40.76371],[-73.84869,40.76015],[-73.85159,40.75936],[-73.8553,40.76066],[-73.85217,40.75747],[-73.8538,40.75719],[-73.85221,40.75267],[-73.85087,40.75],[-73.85443,40.74886],[-73.85012,40.74073],[-73.8478,40.74006],[-73.84751,40.73902],[-73.84547,40.73788],[-73.84429,40.73421],[-73.84285,40.73208],[-73.8392,40.72827],[-73.83555,40.72198],[-73.83232,40.71834],[-73.83043,40.71697],[-73.82606,40.71541],[-73.8256,40.71552],[-73.82617,40.71993],[-73.82769,40.7229],[-73.83255,40.72731],[-73.83636,40.73502],[-73.83768,40.74331],[-73.83592,40.74344],[-73.83469,40.74691],[-73.83508,40.75016],[-73.83799,40.75452],[-73.83996,40.75384],[-73.84066,40.75523],[-73.83912,40.75684]]]]}},{"type":"Feature","properties":{"id":484,"name":"Queens (CD84)","borough":"Queens","snap":null},"geometry":{"type":"MultiPolygon","coordinates":[[[[-73.92814,40.55125],[-73.93119,40.55702],[-73.93291,40.55968],[-73.93539,40.55928],[-73.93757,40.55669],[-73.93766,40.55328],[-73.93633,40.54966],[-73.92814,40.55125]]],[[[-73.86288,40.57607],[-73.87609,40.56948],[-73.8783,40.5687],[-73.88212,40.56867],[-73.88442,40.56792],[-73.88655,40.56848],[-73.88537,40.56686],[-73.89554,40.56403],[-73.89613,40.56537],[-73.90095,40.56307],[-73.90284,40.56352],[-73.90653,40.56285],[-73.91003,40.5648],[-73.91062,40.56382],[-73.90924,40.56077],[-73.90904,40.55578],[-73.90394,40.55681],[-73.89701,40.55689],[-73.88042,40.56148],[-73.87633,40.56309],[-73.86356,40.56703],[-73.86287,40.56684],[-73.86534,40.56879],[-73.86447,40.56915],[-73.86663,40.57307],[-73.86361,40.57383],[-73.86288,40.57607]]],[[[-73.84668,40.59322],[-73.8458,40.59192],[-73.84117,40.59245],[-73.83832,40.58945],[-73.83333,40.58893],[-73.83223,40.58992],[-73.83134,40.59277],[-73.83761,40.59535],[-73.8376,40.59675],[-73.8395,40.59717],[-73.84444,40.59586],[-73.84668,40.59322]]],[[[-73.81051,40.60254],[-73.8134,40.60437],[-73.81563,40.60345],[-73.81536,40.60112],[-73.8126,40.59839],[-73.81037,40.5995],[-73.81051,40.60254]]],[[[-73.8259,40.60647],[-73.8263,40.60782],[-73.82815,40.60796],[-73.82862,40.60585],[-73.8259,40.60647]]],[[[-73.83588,40.60565],[-73.83454,40.60549],[-73.83046,40.60668],[-73.83033,40.6085],[-73.83252,40.61039],[-73.83428,40.60919],[-73.83446,40.6072],[-73.83588,40.60565]]],[[[-73.79878,40.61034],[-73.80159,40.61024],[-73.8042,40.60875],[-73.80521,40.60675],[-73.80429,40.60453],[-73.8012,40.60392],[-73.79697,40.60413],[-73.79352,40.60634],[-73.79631,40.60935],[-73.79878,40.61034]]],[[[-73.76524,40.61495],[-73.76672,40.61501],[-73.76746,40.62052],[-73.76874,40.62091],[-73.77398,40.61601],[-73.76825,40.61489],[-73.76524,40.61495]]],[[[-73.79502,40.62358],[-73.79439,40.62309],[-73.79731,40.61948],[-73.79748,40.61782],[-73.80062,40.61443],[-73.80009,40.61152],[-73.79619,40.61061],[-73.7934,40.60851],[-73.79212,40.60668],[-73.78693,40.61042],[-73.78413,40.61151],[-73.78008,40.614],[-73.78657,40.62061],[-73.78601,40.62164],[-73.79031,40.62436],[-73.79502,40.62358]]],[[[-73.80575,40.6167],[-73.80477,40.61581],[-73.80509,40.61344],[-73.80271,40.61359],[-73.79992,40.61858],[-73.79951,40.62118],[-73.79809,40.62307],[-73.79363,40.62517],[-73.79784,40.62742],[-73.80252,40.62634],[-73.80699,40.62388],[-73.80764,40.62121],[-73.80575,40.6167]]],[[[-73.81307,40.62927],[-73.81392,40.63079],[-73.81637,40.63138],[-73.81731,40.63063],[-73.81627,40.62715],[-73.81679,40.62636],[-73.81418,40.6237],[-73.81201,40.61719],[-73.8111,40.61792],[-73.8121,40.62111],[-73.8113,40.62471],[-73.81307,40.62927]]],[[[-73.81717,40.61484],[-73.81778,40.61751],[-73.81523,40.61805],[-73.81496,40.62041],[-73.81832,40.62098],[-73.81575,40.62321],[-73.81732,40.62442],[-73.81735,40.6275],[-73.81948,40.62764],[-73.82108,40.62974],[-73.82156,40.63205],[-73.8208,40.63339],[-73.82225,40.63556],[-73.82317,40.63898],[-73.82457,40.63936],[-73.82443,40.63623],[-73.82811,40.63565],[-73.83222,40.63894],[-73.83341,40.63851],[-73.83136,40.63365],[-73.83337,40.62847],[-73.83406,40.61346],[-73.83347,40.61444],[-73.83055,40.61494],[-73.82702,40.6129],[-73.82575,40.61339],[-73.82386,40.60999],[-73.8238,40.61214],[-73.82076,40.61524],[-73.81717,40.61484]]],[[[-73.83682,40.64926],[-73.83739,40.64913],[-73.83633,40.64533],[-73.83682,40.64926]]],[[[-73.83127,40.65008],[-73.83572,40.64939],[-73.8342,40.64802],[-73.83097,40.64824],[-73.83127,40.65008]]],[[[-73.82701,40.65087],[-73.82963,40.65048],[-73.82638,40.64827],[-73.82701,40.65087]]]]}},{"type":"Feature","properties":{"id":501,"name":"St. George and Stapleton (CD1)","borough":"Staten Island","snap":21.8},"geometry":{"type":"MultiPolygon","coordinates":[[[[-74.16047,40.64165],[-74.15881,40.64177],[-74.15799,40.64387],[-74.16146,40.6443],[-74.16047,40.64165]]],[[[-74.05675,40.60811],[-74.06033,40.61196],[-74.06121,40.6142],[-74.06391,40.61688],[-74.0623,40.61815],[-74.06611,40.62271],[-74.0684,40.62656],[-74.06929,40.63383],[-74.06947,40.64284],[-74.07151,40.64319],[-74.07661,40.6472],[-74.079,40.64829],[-74.08485,40.64896],[-74.08768,40.64832],[-74.09363,40.64585],[-74.10061,40.64514],[-74.10307,40.64568],[-74.10887,40.64568],[-74.11101,40.64506],[-74.11512,40.64279],[-74.12072,40.64105],[-74.12291,40.64132],[-74.12426,40.64016],[-74.12881,40.64023],[-74.13126,40.6416],[-74.13435,40.64189],[-74.1423,40.64031],[-74.14484,40.63936],[-74.15126,40.63849],[-74.1512,40.63774],[-74.15483,40.63773],[-74.16229,40.63877],[-74.16563,40.64122],[-74.16907,40.64214],[-74.17119,40.64175],[-74.17286,40.64434],[-74.17535,40.64515],[-74.17553,40.64348],[-74.17887,40.64272],[-74.17936,40.64436],[-74.18382,40.64466],[-74.18703,40.64299],[-74.19324,40.63797],[-74.19474,40.63728],[-74.1959,40.63521],[-74.18368,40.62875],[-74.17888,40.62594],[-74.17395,40.62208],[-74.16808,40.62094],[-74.16163,40.61794],[-74.15793,40.61547],[-74.15032,40.6096],[-74.14724,40.60815],[-74.14288,40.60759],[-74.13094,40.60822],[-74.12351,40.60924],[-74.11688,40.61098],[-74.11393,40.61118],[-74.10779,40.61024],[-74.09593,40.61065],[-74.09306,40.61013],[-74.08543,40.60703],[-74.08281,40.60642],[-74.07657,40.60613],[-74.07207,40.6052],[-74.06351,40.60216],[-74.06516,40.60421],[-74.05675,40.60811]]]]}},{"type":"Feature","properties":{"id":502,"name":"South Beach and Willowbrook (CD2)","borough":"Staten Island","snap":13.8},"geometry":{"type":"MultiPolygon","coordinates":[[[[-74.10174,40.55991],[-74.09763,40.56449],[-74.10661,40.56879],[-74.10368,40.57022],[-74.10296,40.57173],[-74.10524,40.5731],[-74.10471,40.57401],[-74.09277,40.56795],[-74.08877,40.57238],[-74.07915,40.57806],[-74.07131,40.58521],[-74.06663,40.59035],[-74.06056,40.59492],[-74.06376,40.59894],[-74.06106,40.59983],[-74.06351,40.60216],[-74.07207,40.6052],[-74.07657,40.60613],[-74.08281,40.60642],[-74.08543,40.60703],[-74.09306,40.61013],[-74.09593,40.61065],[-74.10779,40.61024],[-74.11393,40.61118],[-74.11688,40.61098],[-74.12351,40.60924],[-74.13094,40.60822],[-74.14288,40.60759],[-74.14724,40.60815],[-74.15032,40.6096],[-74.15793,40.61547],[-74.16163,40.61794],[-74.16808,40.62094],[-74.17395,40.62208],[-74.17888,40.62594],[-74.18368,40.62875],[-74.1959,40.63521],[-74.19934,40.63289],[-74.20116,40.62936],[-74.20167,40.62361],[-74.20129,40.61905],[-74.20038,40.61644],[-74.19655,40.61617],[-74.19529,40.61355],[-74.19829,40.60677],[-74.19625,40.60398],[-74.19583,40.60231],[-74.19717,40.60001],[-74.1974,40.59689],[-74.20406,40.58964],[-74.20364,40.58533],[-74.20596,40.58006],[-74.20356,40.58044],[-74.19502,40.57948],[-74.19211,40.57716],[-74.1883,40.57813],[-74.18266,40.57769],[-74.18012,40.57919],[-74.17994,40.58064],[-74.18287,40.58472],[-74.18242,40.58616],[-74.17609,40.59069],[-74.1752,40.59015],[-74.17836,40.58826],[-74.18105,40.58572],[-74.17883,40.5823],[-74.17861,40.57926],[-74.18145,40.57664],[-74.18541,40.57652],[-74.18352,40.57408],[-74.17887,40.57231],[-74.17595,40.57001],[-74.1736,40.56685],[-74.1742,40.56596],[-74.17601,40.56725],[-74.17895,40.5714],[-74.18376,40.57315],[-74.18681,40.57639],[-74.19037,40.5763],[-74.19025,40.57106],[-74.1892,40.57094],[-74.18918,40.57553],[-74.1861,40.57254],[-74.18123,40.56969],[-74.17931,40.56907],[-74.17795,40.56399],[-74.17146,40.56138],[-74.1659,40.56029],[-74.16499,40.56146],[-74.16439,40.56563],[-74.16256,40.56674],[-74.15024,40.57128],[-74.13379,40.5733],[-74.12766,40.57524],[-74.12709,40.57638],[-74.1235,40.57582],[-74.12173,40.57491],[-74.12163,40.57151],[-74.1249,40.56896],[-74.1143,40.56268],[-74.11211,40.56551],[-74.10174,40.55991]]],[[[-74.19959,40.60673],[-74.19923,40.60929],[-74.19733,40.61237],[-74.19815,40.61405],[-74.20077,40.61424],[-74.20236,40.61316],[-74.20263,40.60587],[-74.20015,40.60369],[-74.19747,40.60274],[-74.19959,40.60673]]]]}},{"type":"Feature","properties":{"id":503,"name":"Tottenville and Great Kills (CD3)","borough":"Staten Island","snap":8.8},"geometry":{"type":"MultiPolygon","coordinates":[[[[-74.13568,40.54638],[-74.13862,40.54846],[-74.13043,40.55445],[-74.1273,40.5573],[-74.11946,40.55223],[-74.11676,40.549],[-74.11369,40.55096],[-74.10963,40.5523],[-74.10891,40.55343],[-74.10174,40.55991],[-74.11211,40.56551],[-74.1143,40.56268],[-74.1249,40.56896],[-74.12163,40.57151],[-74.12173,40.57491],[-74.1235,40.57582],[-74.12709,40.57638],[-74.12766,40.57524],[-74.13379,40.5733],[-74.15024,40.57128],[-74.16256,40.56674],[-74.16439,40.56563],[-74.16499,40.56146],[-74.1659,40.56029],[-74.17146,40.56138],[-74.17795,40.56399],[-74.17931,40.56907],[-74.18123,40.56969],[-74.1861,40.57254],[-74.18918,40.57553],[-74.1892,40.57094],[-74.19025,40.57106],[-74.19037,40.5763],[-74.19305,40.57633],[-74.19796,40.57842],[-74.19904,40.57417],[-74.2016,40.5723],[-74.20655,40.57258],[-74.20817,40.57077],[-74.21153,40.56351],[-74.21153,40.56088],[-74.21417,40.5566],[-74.21741,40.5551],[-74.22617,40.55623],[-74.22914,40.55588],[-74.23637,40.55237],[-74.23655,40.55024],[-74.24235,40.54685],[-74.24353,40.54761],[-74.2466,40.54538],[-74.24816,40.54306],[-74.24665,40.54231],[-74.24512,40.53846],[-74.24598,40.53704],[-74.24227,40.53433],[-74.24152,40.53128],[-74.24397,40.52501],[-74.24298,40.52387],[-74.24299,40.52125],[-74.23992,40.52005],[-74.24264,40.51825],[-74.24431,40.51858],[-74.24752,40.51574],[-74.24822,40.51649],[-74.25224,40.51368],[-74.2535,40.50978],[-74.25566,40.50768],[-74.25537,40.50393],[-74.2526,40.49965],[-74.24844,40.4961],[-74.24661,40.49613],[-74.24472,40.49737],[-74.23995,40.49737],[-74.23677,40.49992],[-74.23082,40.50184],[-74.2282,40.50223],[-74.22498,40.50175],[-74.21959,40.50271],[-74.21736,40.5036],[-74.21538,40.50585],[-74.21353,40.50641],[-74.21009,40.5108],[-74.20787,40.51185],[-74.20081,40.51302],[-74.19968,40.51139],[-74.1952,40.50981],[-74.1936,40.51083],[-74.18746,40.5171],[-74.18508,40.51896],[-74.18098,40.52065],[-74.17763,40.51929],[-74.17119,40.52348],[-74.17015,40.52302],[-74.16223,40.52721],[-74.1594,40.52744],[-74.15633,40.52885],[-74.15233,40.53203],[-74.14695,40.53531],[-74.14463,40.53572],[-74.14177,40.53856],[-74.14167,40.54232],[-74.138,40.54556],[-74.13568,40.54638]]],[[[-74.20624,40.57908],[-74.2077,40.57338],[-74.20069,40.57383],[-74.19948,40.57902],[-74.20411,40.58],[-74.20624,40.57908]]]]}}]}